STARLINK-31523          
1 59220U 24046V   26026.13264008  .00014762  00000+0  50993-3 0  9992
2 59220  53.1598 353.0257 0001125 112.8949 247.2171 15.30176022106524
STARLINK-31516          
1 59221U 24046W   26026.17263228 -.00000166  00000+0  65318-5 0  9993
2 59221  53.1634 352.5651 0001573  78.7465 281.3712 15.30197540106537
STARLINK-31490          
1 59222U 24046X   26026.61306341 -.00000266  00000+0  31598-5 0  9991
2 59222  53.1611 351.0424 0001233  91.0477 269.0665 15.30190174106591
STARLINK-31420          
1 59223U 24046Y   26026.60989948  .00000897  00000+0  42424-4 0  9999
2 59223  53.1613 351.0246 0001240  98.7012 261.4129 15.30192500106599
STRIX-3                 
1 59224U 24047A   26026.66565513  .00013334  00000+0  68195-3 0  9997
2 59224  97.6492   0.6387 0013499 185.3230 174.7861 15.16695998103279
STARLINK-31304          
1 59231U 24049A   26026.58334491  .00247403  00000+0  47897-2 0  9998
2 59231  42.9969   5.2088 0015545 142.3877 191.0428 15.45957501  5783
STARLINK-31305          
1 59232U 24049B   26026.28794169 -.00002204  00000+0 -70591-4 0  9997
2 59232  43.0019  22.7785 0001740 280.1680  79.8976 15.27575783105909
STARLINK-31459          
1 59233U 24049C   26026.04182142 -.00002076  00000+0 -65975-4 0  9991
2 59233  43.0006  24.3888 0000621 273.0189  87.0591 15.27573083105871
STARLINK-31438          
1 59234U 24049D   26025.01366535 -.00002091  00000+0 -66508-4 0  9998
2 59234  43.0043  19.1858 0000674 277.6800  82.3975 15.27577642105846
STARLINK-31467          
1 59235U 24049E   26025.71232388 -.00002111  00000+0 -67216-4 0  9994
2 59235  43.0049  26.2170 0001346 269.6508  90.4189 15.27571839105830
STARLINK-31444          
1 59236U 24049F   26026.50806749  .00001148  00000+0  51243-4 0  9991
2 59236  43.0030 312.2565 0000944 245.3986 114.6767 15.27580922106724
STARLINK-31505          
1 59237U 24049G   26026.04567853 -.00000210  00000+0  18873-5 0  9994
2 59237  43.0076  24.4325 0001371 276.5976  83.4719 15.27574803105888
STARLINK-31494          
1 59238U 24049H   26026.28538483 -.00000061  00000+0  73005-5 0  9990
2 59238  43.0007  22.7752 0001171 288.6686  71.4039 15.27572315105921
STARLINK-31303          
1 59239U 24049J   26026.01114280 -.00000006  00000+0  92807-5 0  9997
2 59239  43.0023  13.7122 0000547 237.0998 122.9802 15.27578189106006
STARLINK-31408          
1 59240U 24049K   26025.99827984  .00000457  00000+0  26122-4 0  9992
2 59240  43.0014  24.9203 0001403 258.6808 101.3886 15.27580546105870
STARLINK-31427          
1 59241U 24049L   26026.00213594  .00000221  00000+0  17566-4 0  9993
2 59241  42.9991  24.9185 0001280 261.1764  98.8942 15.27574525105878
STARLINK-31423          
1 59242U 24049M   26026.25727608  .00001416  00000+0  61024-4 0  9992
2 59242  43.0032  23.4226 0001568 263.3435  96.7238 15.27555573105917
STARLINK-31433          
1 59243U 24049N   26024.00842710  .00001450  00000+0  62214-4 0  9996
2 59243  43.0035  35.7884 0002718 305.1213  54.9384 15.27580512105575
STARLINK-31285          
1 59244U 24049P   26026.28151587  .00000856  00000+0  40620-4 0  9990
2 59244  43.0004  22.7477 0001362 286.3809  73.6893 15.27582738105914
STARLINK-31268          
1 59245U 24049Q   26026.58334491  .00272605  00000+0  51343-2 0  9996
2 59245  42.9943  12.6255 0015179 137.5921 305.0883 15.46665167  5885
STARLINK-31284          
1 59246U 24049R   26026.03155201 -.00000243  00000+0  68280-6 0  9997
2 59246  43.0023  24.3091 0000170 190.4215 169.6633 15.27573243105873
STARLINK-31424          
1 59247U 24049S   26024.99483314 -.00005628  00000+0 -19508-3 0  9999
2 59247  43.0055  26.8262 0001518 263.9120  96.1559 15.27588006105755
STARLINK-31405          
1 59248U 24049T   26026.05338832 -.00000832  00000+0 -20706-4 0  9998
2 59248  43.0044  24.4721 0000974 220.1656 139.9124 15.27573373105870
STARLINK-31426          
1 59249U 24049U   26025.99185617  .00000390  00000+0  23709-4 0  9995
2 59249  43.0057  24.8641 0002328 278.2253  81.8334 15.27577475105866
STARLINK-31407          
1 59250U 24049V   26026.23927285  .00009114  00000+0  34017-3 0  9996
2 59250  43.0005  12.0422 0001843 277.5200  82.5442 15.27594714106035
STARLINK-31393          
1 59252U 24049X   26025.98849976 -.00001948  00000+0 -61308-4 0  9992
2 59252  43.0030  10.1254 0000632 260.9259  99.1522 15.27577908106042
STARLINK-31425          
1 59253U 24049Y   26026.28923325 -.00000164  00000+0  35718-5 0  9993
2 59253  43.0058  22.8036 0001372 284.0361  76.0339 15.27572221105912
STARLINK-31659          
1 59254U 24050A   26026.26385507  .00019811  00000+0  67922-3 0  9996
2 59254  53.1593  15.8857 0001136  95.5216 264.5914 15.30200138105231
STARLINK-31629          
1 59255U 24050B   26026.27177115  .00007370  00000+0  26071-3 0  9999
2 59255  53.1601  18.0606 0001578  94.2351 265.8830 15.30202043104052
STARLINK-31652          
1 59256U 24050C   26026.25910639  .00005497  00000+0  19757-3 0  9995
2 59256  53.1594  17.9827 0000943  71.6036 288.5067 15.30199383104057
