OBJECT_NAME,OBJECT_ID,EPOCH,MEAN_MOTION,ECCENTRICITY,INCLINATION,RA_OF_ASC_NODE,ARG_OF_PERICENTER,MEAN_ANOMALY,EPHEMERIS_TYPE,CLASSIFICATION_TYPE,NORAD_CAT_ID,ELEMENT_SET_NO,REV_AT_EPOCH,BSTAR,MEAN_MOTION_DOT,MEAN_MOTION_DDOT
STARLINK-31523,2024-046V,2026-01-26T03:11:00.102912,15.30176022,.00011259,53.1598,353.0257,112.8949,247.2171,0,U,59220,999,10652,.50992503E-3,.14762E-3,0
STARLINK-31516,2024-046W,2026-01-26T04:08:35.428992,15.30197540,.00015732,53.1634,352.5651,78.7465,281.3712,0,U,59221,999,10653,.6531764E-5,-.166E-5,0
STARLINK-31490,2024-046X,2026-01-26T14:42:48.678624,15.30190174,.00012339,53.1611,351.0424,91.0477,269.0665,0,U,59222,999,10659,.3159776E-5,-.266E-5,0
STARLINK-31420,2024-046Y,2026-01-26T14:38:15.315072,15.30192500,.00012404,53.1613,351.0246,98.7012,261.4129,0,U,59223,999,10659,.42423981E-4,.897E-5,0
STRIX-3,2024-047A,2026-01-26T15:58:32.603232,15.16695998,.0013499,97.6492,0.6387,185.3230,174.7861,0,U,59224,999,10327,.68194816E-3,.13334E-3,0
STARLINK-31304,2024-049A,2026-01-26T14:00:01.000224,15.45957501,.0015545,42.9969,5.2088,142.3877,191.0428,0,U,59231,999,578,.47896989E-2,.247403E-2,0
STARLINK-31305,2024-049B,2026-01-26T06:54:38.162016,15.27575783,.000174,43.0019,22.7785,280.1680,79.8976,0,U,59232,999,10590,-.70591E-4,-.2204E-4,0
STARLINK-31459,2024-049C,2026-01-26T01:00:13.370688,15.27573083,.00006213,43.0006,24.3888,273.0189,87.0591,0,U,59233,999,10587,-.65974992E-4,-.2076E-4,0
STARLINK-31438,2024-049D,2026-01-25T00:19:40.686240,15.27577642,.0000674,43.0043,19.1858,277.6800,82.3975,0,U,59234,999,10584,-.6650827E-4,-.2091E-4,0
STARLINK-31467,2024-049E,2026-01-25T17:05:44.783232,15.27571839,.00013464,43.0049,26.2170,269.6508,90.4189,0,U,59235,999,10583,-.67216054E-4,-.2111E-4,0
STARLINK-31444,2024-049F,2026-01-26T12:11:37.031136,15.27580922,.00009443,43.0030,312.2565,245.3986,114.6767,0,U,59236,999,10672,.51243159E-4,.1148E-4,0
STARLINK-31505,2024-049G,2026-01-26T01:05:46.624992,15.27574803,.00013714,43.0076,24.4325,276.5976,83.4719,0,U,59237,999,10588,.1887348E-5,-.21E-5,0
STARLINK-31494,2024-049H,2026-01-26T06:50:57.249312,15.27572315,.0001171,43.0007,22.7752,288.6686,71.4039,0,U,59238,999,10592,.73005E-5,-.61E-6,0
STARLINK-31303,2024-049J,2026-01-26T00:16:02.737920,15.27578189,.00005472,43.0023,13.7122,237.0998,122.9802,0,U,59239,999,10600,.9280659E-5,-.6E-7,0
STARLINK-31408,2024-049K,2026-01-25T23:57:31.378176,15.27580546,.00014035,43.0014,24.9203,258.6808,101.3886,0,U,59240,999,10587,.26121572E-4,.457E-5,0
STARLINK-31427,2024-049L,2026-01-26T00:03:04.545216,15.27574525,.00012804,42.9991,24.9185,261.1764,98.8942,0,U,59241,999,10587,.17565822E-4,.221E-5,0
STARLINK-31423,2024-049M,2026-01-26T06:10:28.653312,15.27555573,.0001568,43.0032,23.4226,263.3435,96.7238,0,U,59242,999,10591,.61024E-4,.1416E-4,0
STARLINK-31433,2024-049N,2026-01-24T00:12:08.101440,15.27580512,.00027189,43.0035,35.7884,305.1213,54.9384,0,U,59243,999,10557,.62214433E-4,.145E-4,0
STARLINK-31285,2024-049P,2026-01-26T06:45:22.971168,15.27582738,.0001362,43.0004,22.7477,286.3809,73.6893,0,U,59244,999,10591,.4062E-4,.856E-5,0
STARLINK-31268,2024-049Q,2026-01-26T14:00:01.000224,15.46665167,.00151798,42.9943,12.6255,137.5921,305.0883,0,U,59245,999,588,.51342777E-2,.272605E-2,0
STARLINK-31284,2024-049R,2026-01-26T00:45:26.093664,15.27573243,.00001708,43.0023,24.3091,190.4215,169.6633,0,U,59246,999,10587,.682804E-6,-.243E-5,0
STARLINK-31424,2024-049S,2026-01-24T23:52:33.583296,15.27588006,.00015187,43.0055,26.8262,263.9120,96.1559,0,U,59247,999,10575,-.19507875E-3,-.5628E-4,0
STARLINK-31405,2024-049T,2026-01-26T01:16:52.750848,15.27573373,.00009747,43.0044,24.4721,220.1656,139.9124,0,U,59248,999,10587,-.20706498E-4,-.832E-5,0
STARLINK-31426,2024-049U,2026-01-25T23:48:16.373088,15.27577475,.00023287,43.0057,24.8641,278.2253,81.8334,0,U,59249,999,10586,.23709292E-4,.39E-5,0
STARLINK-31407,2024-049V,2026-01-26T05:44:33.174240,15.27594714,.0001843,43.0005,12.0422,277.5200,82.5442,0,U,59250,999,10603,.34017E-3,.9114E-4,0
STARLINK-31393,2024-049X,2026-01-25T23:43:26.379264,15.27577908,.00006321,43.0030,10.1254,260.9259,99.1522,0,U,59252,999,10604,-.61308171E-4,-.1948E-4,0
STARLINK-31425,2024-049Y,2026-01-26T06:56:29.752800,15.27572221,.0001372,43.0058,22.8036,284.0361,76.0339,0,U,59253,999,10591,.35718E-5,-.164E-5,0
STARLINK-31659,2024-050A,2026-01-26T06:19:57.078048,15.30200138,.0001136,53.1593,15.8857,95.5216,264.5914,0,U,59254,999,10523,.67922E-3,.19811E-3,0
STARLINK-31629,2024-050B,2026-01-26T06:31:21.027360,15.30202043,.0001578,53.1601,18.0606,94.2351,265.8830,0,U,59255,999,10405,.26071E-3,.737E-4,0
STARLINK-31652,2024-050C,2026-01-26T06:13:06.792096,15.30199383,.0000943,53.1594,17.9827,71.6036,288.5067,0,U,59256,999,10405,.19757E-3,.5497E-4,0
